{
    "links": {
        "self": "http://www.neowsapp.com/rest/v1/neo/3758933?api_key=iIulBulltgU6a56xZRHN4H3l9WmuAYTsLGpBGhQ2"
    },
    "id": "3758933",
    "neo_reference_id": "3758933",
    "name": "(2016 RS1)",
    "designation": "2016 RS1",
    "nasa_jpl_url": "http://ssd.jpl.nasa.gov/sbdb.cgi?sstr=3758933",
    "absolute_magnitude_h": 29.2,
    "estimated_diameter": {
        "kilometers": {
            "estimated_diameter_min": 0.0038419789,
            "estimated_diameter_max": 0.008590926
        },
        "meters": {
            "estimated_diameter_min": 3.8419789106,
            "estimated_diameter_max": 8.5909260123
        },
        "miles": {
            "estimated_diameter_min": 0.0023872943,
            "estimated_diameter_max": 0.0053381523
        },
        "feet": {
            "estimated_diameter_min": 12.6049180892,
            "estimated_diameter_max": 28.1854536983
        }
    },
    "is_potentially_hazardous_asteroid": false,
    "close_approach_data": [
        {
            "close_approach_date": "2016-09-02",
            "close_approach_date_full": "2016-Sep-02 14:28",
            "epoch_date_close_approach": 1472826480000,
            "relative_velocity": {
                "kilometers_per_second": "7.6891519341",
                "kilometers_per_hour": "27680.9469627171",
                "miles_per_hour": "17199.8639613616"
            },
            "miss_distance": {
                "astronomical": "0.002422063",
                "lunar": "0.942182507",
                "kilometers": "362335.46580581",
                "miles": "225144.818347778"
            },
            "orbiting_body": "Moon"
        },
        {
            "close_approach_date": "2016-09-03",
            "close_approach_date_full": "2016-Sep-03 00:30",
            "epoch_date_close_approach": 1472862600000,
            "relative_velocity": {
                "kilometers_per_second": "7.1115943438",
                "kilometers_per_hour": "25601.7396376887",
                "miles_per_hour": "15907.9253876516"
            },
            "miss_distance": {
                "astronomical": "0.0012732323",
                "lunar": "0.4952873647",
                "kilometers": "190472.840095201",
                "miles": "118354.3346717338"
            },
            "orbiting_body": "Earth"
        },
        {
            "close_approach_date": "2030-07-21",
            "close_approach_date_full": "2030-Jul-21 01:16",
            "epoch_date_close_approach": 1910826960000,
            "relative_velocity": {
                "kilometers_per_second": "7.2535854623",
                "kilometers_per_hour": "26112.9076643332",
                "miles_per_hour": "16225.545320652"
            },
            "miss_distance": {
                "astronomical": "0.0237730696",
                "lunar": "9.2477240744",
                "kilometers": "3556400.575521752",
                "miles": "2209844.8457620976"
            },
            "orbiting_body": "Earth"
        }
    ],
    "orbital_data": {
        "orbit_id": "2",
        "orbit_determination_date": "2017-04-06 08:24:11",
        "first_observation_date": "2016-09-04",
        "last_observation_date": "2016-09-06",
        "data_arc_in_days": 2,
        "observations_used": 18,
        "orbit_uncertainty": "7",
        "minimum_orbit_intersection": ".000913471",
        "jupiter_tisserand_invariant": "4.008",
        "epoch_osculation": "2459000.5",
        "eccentricity": ".4332698419193273",
        "semi_major_axis": "1.757455900205877",
        "inclination": "1.623074136568343",
        "ascending_node_longitude": "338.16430635",
        "orbital_period": "850.9912232852168",
        "perihelion_distance": ".9960032601434877",
        "perihelion_argument": "345.6170525252091",
        "aphelion_distance": "2.518908540268267",
        "perihelion_time": "2459322.147807462658",
        "mean_anomaly": "223.9313690691874",
        "mean_motion": ".4230360903256261",
        "equinox": "J2000",
        "orbit_class": {
            "orbit_class_type": "APO",
            "orbit_class_description": "Near-Earth asteroid orbits which cross the Earth’s orbit similar to that of 1862 Apollo",
            "orbit_class_range": "a (semi-major axis) > 1.0 AU; q (perihelion) < 1.017 AU"
        }
    },
    "is_sentry_object": false
}